GLOBALSTAR M094         
1 39074U 13005C   25284.10214873 -.00000051  00000+0  29696-3 0  9990
2 39074  51.9948 189.1895 0000776  88.1031 271.9924 12.62264263587012
GLOBALSTAR M096         
1 39075U 13005D   25284.11536061 -.00000083  00000+0  11797-3 0  9996
2 39075  52.0063 237.7543 0000654  85.2853 274.8089 12.62267467585930
GLOBALSTAR M078         
1 39076U 13005E   25284.24776990 -.00000015  00000+0  49453-3 0  9993
2 39076  51.9886 321.7086 0001270  82.2078 277.8932 12.62261306584574
GLOBALSTAR M095         
1 39077U 13005F   25284.27376888 -.00000079  00000+0  13903-3 0  9990
2 39077  52.0089 318.8787 0000851 107.2861 252.8099 12.62260667584430
GLOBALSTAR M087         
1 52888U 22064A   25284.20790682 -.00000115  00000+0 -62792-4 0  9998
2 52888  51.9975 100.4570 0001019 102.2136 257.8845 12.62289311159696
